{"type": "FeatureCollection", "features": [ {"type": "Feature", "properties": {"norad_id": 41774, "name": "SKYSAT-C3", "group": "resource", "lat": 2.857443785285984, "lon": 15.850081980940269, "alt_km": 436.7697294308873, "timestamp": "2025-12-08T05:48:08.705012+00:00", "meta": {"OBJECT_NAME": "SKYSAT-C3", "OBJECT_ID": "2016-058E", "EPOCH": "2025-12-07T20:27:30.105792", "MEAN_MOTION": 15.44148026, "ECCENTRICITY": 0.00015674, "INCLINATION": 96.9299, "RA_OF_ASC_NODE": 15.8268, "ARG_OF_PERICENTER": 104.9278, "MEAN_ANOMALY": 255.2145, "EPHEMERIS_TYPE": 0, "CLASSIFICATION_TYPE": "U", "NORAD_CAT_ID": 41774, "ELEMENT_SET_NO": 999, "REV_AT_EPOCH": 51650, "BSTAR": 0.00061173858, "MEAN_MOTION_DOT": 0.00028002, "MEAN_MOTION_DDOT": 0}, "tle": {"line1": "1 41774U 16058E   25341.85243178  .00028002  00000+0  61174-3 0  9999", "line2": "2 41774  96.9299  15.8268 0001567 104.9278 255.2145 15.44148026516505"}}, "geometry": {"type": "Point", "coordinates": [15.850081980940269, 2.857443785285984]}}, {"type": "Feature", "properties": {"norad_id": 41785, "name": "ALSAT 1B", "group": "resource", "lat": -50.86732961111817, "lon": 3.901215438702998, "alt_km": 668.6932732669575, "timestamp": "2025-12-08T05:48:08.705022+00:00", "meta": {"OBJECT_NAME": "ALSAT 1B", "OBJECT_ID": "2016-059C", "EPOCH": "2025-12-07T23:30:39.858336", "MEAN_MOTION": 14.72067553, "ECCENTRICITY": 0.0010587, "INCLINATION": 97.7815, "RA_OF_ASC_NODE": 353.9748, "ARG_OF_PERICENTER": 117.2716, "MEAN_ANOMALY": 242.9571, "EPHEMERIS_TYPE": 0, "CLASSIFICATION_TYPE": "U", "NORAD_CAT_ID": 41785, "ELEMENT_SET_NO": 999, "REV_AT_EPOCH": 49244, "BSTAR": 0.00012716241, "MEAN_MOTION_DOT": 7.53e-06, "MEAN_MOTION_DDOT": 0}, "tle": {"line1": "1 41785U 16059C   25341.97962799  .00000753  00000+0  12716-3 0  9993", "line2": "2 41785  97.7815 353.9748 0010587 117.2716 242.9571 14.72067553492442"}}, "geometry": {"type": "Point", "coordinates": [3.901215438702998, -50.86732961111817]}}, {"type": "Feature", "properties": {"norad_id": 41787, "name": "PATHFINDER 1", "group": "resource", "lat": 73.86957277579168, "lon": -166.42897066268068, "alt_km": 641.7124819260207, "timestamp": "2025-12-08T05:48:08.705032+00:00", "meta": {"OBJECT_NAME": "PATHFINDER 1", "OBJECT_ID": "2016-059E", "EPOCH": "2025-12-07T22:47:05.467776", "MEAN_MOTION": 14.67307414, "ECCENTRICITY": 0.00300474, "INCLINATION": 97.8138, "RA_OF_ASC_NODE": 344.9453, "ARG_OF_PERICENTER": 95.7379, "MEAN_ANOMALY": 264.7254, "EPHEMERIS_TYPE": 0, "CLASSIFICATION_TYPE": "U", "NORAD_CAT_ID": 41787, "ELEMENT_SET_NO": 999, "REV_AT_EPOCH": 49166, "BSTAR": 0.00023191195, "MEAN_MOTION_DOT": 1.271e-05, "MEAN_MOTION_DDOT": 0}, "tle": {"line1": "1 41787U 16059E   25341.94936884  .00001271  00000+0  23191-3 0  9993", "line2": "2 41787  97.8138 344.9453 0030047  95.7379 264.7254 14.67307414491664"}}, "geometry": {"type": "Point", "coordinates": [-166.42897066268068, 73.86957277579168]}}, {"type": "Feature", "properties": {"norad_id": 41790, "name": "SCATSAT 1", "group": "resource", "lat": -81.81934551457913, "lon": 133.67660494215318, "alt_km": 663.6808218495362, "timestamp": "2025-12-08T05:48:08.705043+00:00", "meta": {"OBJECT_NAME": "SCATSAT 1", "OBJECT_ID": "2016-059H", "EPOCH": "2025-12-07T22:05:49.519392", "MEAN_MOTION": 14.78910917, "ECCENTRICITY": 0.00560525, "INCLINATION": 98.1467, "RA_OF_ASC_NODE": 38.5309, "ARG_OF_PERICENTER": 143.237, "MEAN_ANOMALY": 217.2705, "EPHEMERIS_TYPE": 0, "CLASSIFICATION_TYPE": "U", "NORAD_CAT_ID": 41790, "ELEMENT_SET_NO": 999, "REV_AT_EPOCH": 7331, "BSTAR": 0.00034490423, "MEAN_MOTION_DOT": 2.554e-05, "MEAN_MOTION_DDOT": 0}, "tle": {"line1": "1 41790U 16059H   25341.92071203  .00002554  00000+0  34490-3 0  9999", "line2": "2 41790  98.1467  38.5309 0056052 143.2370 217.2705 14.78910917 73319"}}, "geometry": {"type": "Point", "coordinates": [133.67660494215318, -81.81934551457913]}}, {"type": "Feature", "properties": {"norad_id": 41875, "name": "GOKTURK 1A", "group": "resource", "lat": -72.59371163182055, "lon": 27.488947927572788, "alt_km": 692.4015613326146, "timestamp": "2025-12-08T05:48:08.705053+00:00", "meta": {"OBJECT_NAME": "GOKTURK 1A", "OBJECT_ID": "2016-073A", "EPOCH": "2025-12-07T23:43:01.945344", "MEAN_MOTION": 14.62770737, "ECCENTRICITY": 0.00012347, "INCLINATION": 98.1437, "RA_OF_ASC_NODE": 234.4169, "ARG_OF_PERICENTER": 83.2946, "MEAN_ANOMALY": 276.8397, "EPHEMERIS_TYPE": 0, "CLASSIFICATION_TYPE": "U", "NORAD_CAT_ID": 41875, "ELEMENT_SET_NO": 999, "REV_AT_EPOCH": 48087, "BSTAR": 0.00018613164, "MEAN_MOTION_DOT": 9.02e-06, "MEAN_MOTION_DDOT": 0}, "tle": {"line1": "1 41875U 16073A   25341.98821696  .00000902  00000+0  18613-3 0  9998", "line2": "2 41875  98.1437 234.4169 0001234  83.2946 276.8397 14.62770737480873"}}, "geometry": {"type": "Point", "coordinates": [27.488947927572788, -72.59371163182055]}}, {"type": "Feature", "properties": {"norad_id": 41877, "name": "RESOURCESAT-2A", "group": "resource", "lat": -67.40053614879311, "lon": -149.6617350057097, "alt_km": 826.4570651517724, "timestamp": "2025-12-08T05:48:08.705063+00:00", "meta": {"OBJECT_NAME": "RESOURCESAT-2A", "OBJECT_ID": "2016-074A", "EPOCH": "2025-12-07T21:52:39.079488", "MEAN_MOTION": 14.21596266, "ECCENTRICITY": 0.00011302, "INCLINATION": 98.7764, "RA_OF_ASC_NODE": 51.7957, "ARG_OF_PERICENTER": 277.3553, "MEAN_ANOMALY": 82.7496, "EPHEMERIS_TYPE": 0, "CLASSIFICATION_TYPE": "U", "NORAD_CAT_ID": 41877, "ELEMENT_SET_NO": 999, "REV_AT_EPOCH": 46712, "BSTAR": 0.00015200705, "MEAN_MOTION_DOT": 2.89e-06, "MEAN_MOTION_DDOT": 0}, "tle": {"line1": "1 41877U 16074A   25341.91156342  .00000289  00000+0  15201-3 0  9991", "line2": "2 41877  98.7764  51.7957 0001130 277.3553  82.7496 14.21596266467129"}}, "geometry": {"type": "Point", "coordinates": [-149.6617350057097, -67.40053614879311]}}, {"type": "Feature", "properties": {"norad_id": 41948, "name": "CARTOSAT-2D", "group": "resource", "lat": 61.7589081009765, "lon": -126.11300739553727, "alt_km": 500.8164941571267, "timestamp": "2025-12-08T05:48:08.705073+00:00", "meta": {"OBJECT_NAME": "CARTOSAT-2D", "OBJECT_ID": "2017-008A", "EPOCH": "2025-12-07T22:57:52.717824", "MEAN_MOTION": 15.19185636, "ECCENTRICITY": 0.00042361, "INCLINATION": 97.4392, "RA_OF_ASC_NODE": 39.5269, "ARG_OF_PERICENTER": 177.5259, "MEAN_ANOMALY": 182.5998, "EPHEMERIS_TYPE": 0, "CLASSIFICATION_TYPE": "U", "NORAD_CAT_ID": 41948, "ELEMENT_SET_NO": 999, "REV_AT_EPOCH": 48854, "BSTAR": 0.00032747061, "MEAN_MOTION_DOT": 6.824e-05, "MEAN_MOTION_DDOT": 0}, "tle": {"line1": "1 41948U 17008A   25341.95686016  .00006824  00000+0  32747-3 0  9993", "line2": "2 41948  97.4392  39.5269 0004236 177.5259 182.5998 15.19185636488543"}}, "geometry": {"type": "Point", "coordinates": [-126.11300739553727, 61.7589081009765]}}, {"type": "Feature", "properties": {"norad_id": 42063, "name": "SENTINEL-2B", "group": "resource", "lat": 67.03542419327422, "lon": 33.89833383730465, "alt_km": 781.7469317217856, "timestamp": "2025-12-08T05:48:08.705083+00:00", "meta": {"OBJECT_NAME": "SENTINEL-2B", "OBJECT_ID": "2017-013A", "EPOCH": "2025-12-07T22:46:10.627104", "MEAN_MOTION": 14.3081305, "ECCENTRICITY": 0.00011275, "INCLINATION": 98.5723, "RA_OF_ASC_NODE": 54.462, "ARG_OF_PERICENTER": 97.8018, "MEAN_ANOMALY": 262.3293, "EPHEMERIS_TYPE": 0, "CLASSIFICATION_TYPE": "U", "NORAD_CAT_ID": 42063, "ELEMENT_SET_NO": 999, "REV_AT_EPOCH": 45729, "BSTAR": 0.00012409545, "MEAN_MOTION_DOT": 2.82e-06, "MEAN_MOTION_DDOT": 0}, "tle": {"line1": "1 42063U 17013A   25341.94873411  .00000282  00000+0  12410-3 0  9991", "line2": "2 42063  98.5723  54.4620 0001127  97.8018 262.3293 14.30813050457295"}}, "geometry": {"type": "Point", "coordinates": [33.89833383730465, 67.03542419327422]}}, {"type": "Feature", "properties": {"norad_id": 42767, "name": "CARTOSAT-2E", "group": "resource", "lat": 27.353661757153485, "lon": 36.00221475553792, "alt_km": 508.0567158538033, "timestamp": "2025-12-08T05:48:08.705093+00:00", "meta": {"OBJECT_NAME": "CARTOSAT-2E", "OBJECT_ID": "2017-036C", "EPOCH": "2025-12-07T21:46:39.323712", "MEAN_MOTION": 15.19248356, "ECCENTRICITY": 0.00023393, "INCLINATION": 97.4559, "RA_OF_ASC_NODE": 39.5569, "ARG_OF_PERICENTER": 261.2352, "MEAN_ANOMALY": 98.8618, "EPHEMERIS_TYPE": 0, "CLASSIFICATION_TYPE": "U", "NORAD_CAT_ID": 42767, "ELEMENT_SET_NO": 999, "REV_AT_EPOCH": 46910, "BSTAR": 0.00034929265, "MEAN_MOTION_DOT": 7.296e-05, "MEAN_MOTION_DDOT": 0}, "tle": {"line1": "1 42767U 17036C   25341.90739958  .00007296  00000+0  34929-3 0  9991", "line2": "2 42767  97.4559  39.5569 0002339 261.2352  98.8618 15.19248356469106"}}, "geometry": {"type": "Point", "coordinates": [36.00221475553792, 27.353661757153485]}}, {"type": "Feature", "properties": {"norad_id": 42920, "name": "FORMOSAT-5", "group": "resource", "lat": 73.37572048835959, "lon": -94.29305686666717, "alt_km": 721.7554892328999, "timestamp": "2025-12-08T05:48:08.705105+00:00", "meta": {"OBJECT_NAME": "FORMOSAT-5", "OBJECT_ID": "2017-049A", "EPOCH": "2025-12-07T22:42:09.312768", "MEAN_MOTION": 14.51000744, "ECCENTRICITY": 0.00100843, "INCLINATION": 98.2457, "RA_OF_ASC_NODE": 56.36, "ARG_OF_PERICENTER": 311.7349, "MEAN_ANOMALY": 48.2983, "EPHEMERIS_TYPE": 0, "CLASSIFICATION_TYPE": "U", "NORAD_CAT_ID": 42920, "ELEMENT_SET_NO": 999, "REV_AT_EPOCH": 43894, "BSTAR": 0.00012358652, "MEAN_MOTION_DOT": 4.45e-06, "MEAN_MOTION_DDOT": 0}, "tle": {"line1": "1 42920U 17049A   25341.94594112  .00000445  00000+0  12359-3 0  9993", "line2": "2 42920  98.2457  56.3600 0010084 311.7349  48.2983 14.51000744438943"}}, "geometry": {"type": "Point", "coordinates": [-94.29305686666717, 73.37572048835959]}}]}